{
  "norad_id": 55821,
  "name": "ONEWEB-0661",
  "history": [
    {
      "epoch": "2026-03-28T20:34:28.018272",
      "apogee_km": 1207.135364259294,
      "perigee_km": 1204.4612686667097,
      "latitude_deg": 34.841228436529335,
      "longitude_deg": -155.6022019200027,
      "semi_major_axis_km": 7583.935316463002,
      "eccentricity": 0.0001763,
      "inclination_deg": 87.8943,
      "raan_deg": 305.7837,
      "arg_perigee_deg": 96.2473,
      "mean_anomaly_deg": 263.8858,
      "mean_motion_rev_day": 13.1450073
    },
    {
      "epoch": "2026-03-29T03:52:54.329088",
      "apogee_km": 1207.1335336411357,
      "perigee_km": 1204.45792217473,
      "latitude_deg": 82.0730038182039,
      "longitude_deg": -126.37296767998487,
      "semi_major_axis_km": 7583.9327279079325,
      "eccentricity": 0.0001764,
      "inclination_deg": 87.8943,
      "raan_deg": 305.7229,
      "arg_perigee_deg": 96.3967,
      "mean_anomaly_deg": 263.7364,
      "mean_motion_rev_day": 13.14501403
    }
  ]
}